STARLINK-3299           
1 50831U 22001AE  25319.72932919  .00001942  00000+0  14006-3 0  9993
2 50831  53.2173 320.7744 0001352  90.3240 269.7907 15.08843004213207
STARLINK-3328           
1 50832U 22001AF  25319.32089307  .00006381  00000+0  41864-3 0  9998
2 50832  53.2184 332.5896 0001416  83.2244 276.8909 15.08840826213003
STARLINK-3331           
1 50834U 22001AH  25319.30521377  .00004778  00000+0  31826-3 0  9991
2 50834  53.2171 332.6159 0001187  90.1272 269.9856 15.08815146212995
STARLINK-3310           
1 50835U 22001AJ  25319.30891726  .00010041  00000+0  64801-3 0  9999
2 50835  53.2165 332.7121 0001266  61.6561 298.4559 15.08842711212996
STARLINK-3330           
1 50836U 22001AK  25319.35398348  .00001992  00000+0  14319-3 0  9991
2 50836  53.2182 332.1700 0000962  90.2123 269.8980 15.08838608212908
STARLINK-3318           
1 50837U 22001AL  25319.73300539  .00014031  00000+0  89692-3 0  9993
2 50837  53.2176 320.6929 0001834  87.1771 272.9431 15.08880149213207
STARLINK-3322           
1 50838U 22001AM  25319.83335647  .00320116  52025-4  76146-3 0  9996
2 50838  53.1777 219.4123 0003380 167.5068 210.2473 15.96181789  6049
STARLINK-3320           
1 50839U 22001AN  25319.35306588  .00006333  00000+0  41587-3 0  9990
2 50839  53.2173 332.3954 0001310  68.1565 291.9567 15.08816941212998
STARLINK-3295           
1 50840U 22001AP  25319.81305828  .00013330  00000+0  85355-3 0  9995
2 50840  53.2162 330.3325 0001284  67.6869 292.4259 15.08860416213068
STARLINK-3300           
1 50841U 22001AQ  25319.36042773  .00014390  00000+0  92011-3 0  9997
2 50841  53.2162 332.3627 0001510  70.0329 290.0826 15.08849756213009
STARLINK-3302           
1 50842U 22001AR  25319.34570522  .00007792  00000+0  50720-3 0  9993
2 50842  53.2176 332.4309 0000924  86.2227 273.8871 15.08834269212996
STARLINK-3325           
1 50843U 22001AS  25319.30153480  .00006299  00000+0  41365-3 0  9996
2 50843  53.2180 332.6260 0001338  79.1846 280.9297 15.08823953212997
STARLINK-3326           
1 50844U 22001AT  25319.26842499  .00009934  00000+0  64138-3 0  9999
2 50844  53.2184 332.7799 0001076  74.4096 285.7015 15.08840357212992
STARLINK-3230           
1 50845U 22001AU  25319.31258720  .00006584  00000+0  43181-3 0  9997
2 50845  53.2184 332.5768 0001368  91.8353 268.2796 15.08802782213005
STARLINK-3308           
1 50846U 22001AV  25319.73947786  .00009036  00000+0  58510-3 0  9998
2 50846  53.2177 330.7799 0001190  74.7477 285.3647 15.08841241213066
STARLINK-3315           
1 50848U 22001AX  25319.72472047  .00000099  00000+0  24336-4 0  9992
2 50848  53.2188 330.7290 0001329 104.3973 255.7167 15.08847210213061
