[{"OBJECT_NAME":"STARLINK-3299","OBJECT_ID":"2022-001AE","EPOCH":"2025-11-15T17:30:14.042016","MEAN_MOTION":15.08843004,"ECCENTRICITY":0.0001352,"INCLINATION":53.2173,"RA_OF_ASC_NODE":320.7744,"ARG_OF_PERICENTER":90.324,"MEAN_ANOMALY":269.7907,"EPHEMERIS_TYPE":0,"CLASSIFICATION_TYPE":"U","NORAD_CAT_ID":50831,"ELEMENT_SET_NO":999,"REV_AT_EPOCH":21320,"BSTAR":0.00014006,"MEAN_MOTION_DOT":1.942e-5,"MEAN_MOTION_DDOT":0},{"OBJECT_NAME":"STARLINK-3328","OBJECT_ID":"2022-001AF","EPOCH":"2025-11-15T07:42:05.161248","MEAN_MOTION":15.08840826,"ECCENTRICITY":0.0001416,"INCLINATION":53.2184,"RA_OF_ASC_NODE":332.5896,"ARG_OF_PERICENTER":83.2244,"MEAN_ANOMALY":276.8909,"EPHEMERIS_TYPE":0,"CLASSIFICATION_TYPE":"U","NORAD_CAT_ID":50832,"ELEMENT_SET_NO":999,"REV_AT_EPOCH":21300,"BSTAR":0.00041864,"MEAN_MOTION_DOT":6.381e-5,"MEAN_MOTION_DDOT":0},{"OBJECT_NAME":"STARLINK-3331","OBJECT_ID":"2022-001AH","EPOCH":"2025-11-15T07:19:30.469728","MEAN_MOTION":15.08815146,"ECCENTRICITY":0.0001187,"INCLINATION":53.2171,"RA_OF_ASC_NODE":332.6159,"ARG_OF_PERICENTER":90.1272,"MEAN_ANOMALY":269.9856,"EPHEMERIS_TYPE":0,"CLASSIFICATION_TYPE":"U","NORAD_CAT_ID":50834,"ELEMENT_SET_NO":999,"REV_AT_EPOCH":21299,"BSTAR":0.00031826,"MEAN_MOTION_DOT":4.778e-5,"MEAN_MOTION_DDOT":0},{"OBJECT_NAME":"STARLINK-3310","OBJECT_ID":"2022-001AJ","EPOCH":"2025-11-15T07:24:50.451264","MEAN_MOTION":15.08842711,"ECCENTRICITY":0.0001266,"INCLINATION":53.2165,"RA_OF_ASC_NODE":332.7121,"ARG_OF_PERICENTER":61.6561,"MEAN_ANOMALY":298.4559,"EPHEMERIS_TYPE":0,"CLASSIFICATION_TYPE":"U","NORAD_CAT_ID":50835,"ELEMENT_SET_NO":999,"REV_AT_EPOCH":21299,"BSTAR":0.00064801,"MEAN_MOTION_DOT":0.00010041,"MEAN_MOTION_DDOT":0},{"OBJECT_NAME":"STARLINK-3330","OBJECT_ID":"2022-001AK","EPOCH":"2025-11-15T08:29:44.172672","MEAN_MOTION":15.08838608,"ECCENTRICITY":9.62e-5,"INCLINATION":53.2182,"RA_OF_ASC_NODE":332.17,"ARG_OF_PERICENTER":90.2123,"MEAN_ANOMALY":269.898,"EPHEMERIS_TYPE":0,"CLASSIFICATION_TYPE":"U","NORAD_CAT_ID":50836,"ELEMENT_SET_NO":999,"REV_AT_EPOCH":21290,"BSTAR":0.00014319,"MEAN_MOTION_DOT":1.992e-5,"MEAN_MOTION_DDOT":0},{"OBJECT_NAME":"STARLINK-3318","OBJECT_ID":"2022-001AL","EPOCH":"2025-11-15T17:35:31.665696","MEAN_MOTION":15.08880149,"ECCENTRICITY":0.0001834,"INCLINATION":53.2176,"RA_OF_ASC_NODE":320.6929,"ARG_OF_PERICENTER":87.1771,"MEAN_ANOMALY":272.9431,"EPHEMERIS_TYPE":0,"CLASSIFICATION_TYPE":"U","NORAD_CAT_ID":50837,"ELEMENT_SET_NO":999,"REV_AT_EPOCH":21320,"BSTAR":0.00089692,"MEAN_MOTION_DOT":0.00014031,"MEAN_MOTION_DDOT":0},{"OBJECT_NAME":"STARLINK-3322","OBJECT_ID":"2022-001AM","EPOCH":"2025-11-15T20:00:01.999008","MEAN_MOTION":15.96181789,"ECCENTRICITY":0.000338,"INCLINATION":53.1777,"RA_OF_ASC_NODE":219.4123,"ARG_OF_PERICENTER":167.5068,"MEAN_ANOMALY":210.2473,"EPHEMERIS_TYPE":0,"CLASSIFICATION_TYPE":"U","NORAD_CAT_ID":50838,"ELEMENT_SET_NO":999,"REV_AT_EPOCH":604,"BSTAR":0.00076146,"MEAN_MOTION_DOT":0.00320116,"MEAN_MOTION_DDOT":5.2025e-5},{"OBJECT_NAME":"STARLINK-3320","OBJECT_ID":"2022-001AN","EPOCH":"2025-11-15T08:28:24.892032","MEAN_MOTION":15.08816941,"ECCENTRICITY":0.000131,"INCLINATION":53.2173,"RA_OF_ASC_NODE":332.3954,"ARG_OF_PERICENTER":68.1565,"MEAN_ANOMALY":291.9567,"EPHEMERIS_TYPE":0,"CLASSIFICATION_TYPE":"U","NORAD_CAT_ID":50839,"ELEMENT_SET_NO":999,"REV_AT_EPOCH":21299,"BSTAR":0.00041587,"MEAN_MOTION_DOT":6.333e-5,"MEAN_MOTION_DDOT":0},{"OBJECT_NAME":"STARLINK-3295","OBJECT_ID":"2022-001AP","EPOCH":"2025-11-15T19:30:48.235392","MEAN_MOTION":15.08860416,"ECCENTRICITY":0.0001284,"INCLINATION":53.2162,"RA_OF_ASC_NODE":330.3325,"ARG_OF_PERICENTER":67.6869,"MEAN_ANOMALY":292.4259,"EPHEMERIS_TYPE":0,"CLASSIFICATION_TYPE":"U","NORAD_CAT_ID":50840,"ELEMENT_SET_NO":999,"REV_AT_EPOCH":21306,"BSTAR":0.00085355,"MEAN_MOTION_DOT":0.0001333,"MEAN_MOTION_DDOT":0},{"OBJECT_NAME":"STARLINK-3300","OBJECT_ID":"2022-001AQ","EPOCH":"2025-11-15T08:39:00.955872","MEAN_MOTION":15.08849756,"ECCENTRICITY":0.000151,"INCLINATION":53.2162,"RA_OF_ASC_NODE":332.3627,"ARG_OF_PERICENTER":70.0329,"MEAN_ANOMALY":290.0826,"EPHEMERIS_TYPE":0,"CLASSIFICATION_TYPE":"U","NORAD_CAT_ID":50841,"ELEMENT_SET_NO":999,"REV_AT_EPOCH":21300,"BSTAR":0.00092011,"MEAN_MOTION_DOT":0.0001439,"MEAN_MOTION_DDOT":0},{"OBJECT_NAME":"STARLINK-3302","OBJECT_ID":"2022-001AR","EPOCH":"2025-11-15T08:17:48.931008","MEAN_MOTION":15.08834269,"ECCENTRICITY":9.24e-5,"INCLINATION":53.2176,"RA_OF_ASC_NODE":332.4309,"ARG_OF_PERICENTER":86.2227,"MEAN_ANOMALY":273.8871,"EPHEMERIS_TYPE":0,"CLASSIFICATION_TYPE":"U","NORAD_CAT_ID":50842,"ELEMENT_SET_NO":999,"REV_AT_EPOCH":21299,"BSTAR":0.0005072,"MEAN_MOTION_DOT":7.792e-5,"MEAN_MOTION_DDOT":0},{"OBJECT_NAME":"STARLINK-3325","OBJECT_ID":"2022-001AS","EPOCH":"2025-11-15T07:14:12.606720","MEAN_MOTION":15.08823953,"ECCENTRICITY":0.0001338,"INCLINATION":53.218,"RA_OF_ASC_NODE":332.626,"ARG_OF_PERICENTER":79.1846,"MEAN_ANOMALY":280.9297,"EPHEMERIS_TYPE":0,"CLASSIFICATION_TYPE":"U","NORAD_CAT_ID":50843,"ELEMENT_SET_NO":999,"REV_AT_EPOCH":21299,"BSTAR":0.00041365,"MEAN_MOTION_DOT":6.299e-5,"MEAN_MOTION_DDOT":0},{"OBJECT_NAME":"STARLINK-3326","OBJECT_ID":"2022-001AT","EPOCH":"2025-11-15T06:26:31.919136","MEAN_MOTION":15.08840357,"ECCENTRICITY":0.0001076,"INCLINATION":53.2184,"RA_OF_ASC_NODE":332.7799,"ARG_OF_PERICENTER":74.4096,"MEAN_ANOMALY":285.7015,"EPHEMERIS_TYPE":0,"CLASSIFICATION_TYPE":"U","NORAD_CAT_ID":50844,"ELEMENT_SET_NO":999,"REV_AT_EPOCH":21299,"BSTAR":0.00064138,"MEAN_MOTION_DOT":9.934e-5,"MEAN_MOTION_DDOT":0},{"OBJECT_NAME":"STARLINK-3230","OBJECT_ID":"2022-001AU","EPOCH":"2025-11-15T07:30:07.534080","MEAN_MOTION":15.08802782,"ECCENTRICITY":0.0001368,"INCLINATION":53.2184,"RA_OF_ASC_NODE":332.5768,"ARG_OF_PERICENTER":91.8353,"MEAN_ANOMALY":268.2796,"EPHEMERIS_TYPE":0,"CLASSIFICATION_TYPE":"U","NORAD_CAT_ID":50845,"ELEMENT_SET_NO":999,"REV_AT_EPOCH":21300,"BSTAR":0.00043181,"MEAN_MOTION_DOT":6.584e-5,"MEAN_MOTION_DDOT":0},{"OBJECT_NAME":"STARLINK-3308","OBJECT_ID":"2022-001AV","EPOCH":"2025-11-15T17:44:50.887104","MEAN_MOTION":15.08841241,"ECCENTRICITY":0.000119,"INCLINATION":53.2177,"RA_OF_ASC_NODE":330.7799,"ARG_OF_PERICENTER":74.7477,"MEAN_ANOMALY":285.3647,"EPHEMERIS_TYPE":0,"CLASSIFICATION_TYPE":"U","NORAD_CAT_ID":50846,"ELEMENT_SET_NO":999,"REV_AT_EPOCH":21306,"BSTAR":0.0005851,"MEAN_MOTION_DOT":9.036e-5,"MEAN_MOTION_DDOT":0},{"OBJECT_NAME":"STARLINK-3315","OBJECT_ID":"2022-001AX","EPOCH":"2025-11-15T17:23:35.848608","MEAN_MOTION":15.0884721,"ECCENTRICITY":0.0001329,"INCLINATION":53.2188,"RA_OF_ASC_NODE":330.729,"ARG_OF_PERICENTER":104.3973,"MEAN_ANOMALY":255.7167,"EPHEMERIS_TYPE":0,"CLASSIFICATION_TYPE":"U","NORAD_CAT_ID":50848,"ELEMENT_SET_NO":999,"REV_AT_EPOCH":21306,"BSTAR":2.4336e-5,"MEAN_MOTION_DOT":9.9e-7,"MEAN_MOTION_DDOT":0}]
